[{"OBJECT_NAME":"COSMOS 2463","OBJECT_ID":"2010-017A","EPOCH":"2026-03-09T23:23:18.911616","MEAN_MOTION":13.71658076,"ECCENTRICITY":0.00371628,"INCLINATION":82.9631,"RA_OF_ASC_NODE":322.6224,"ARG_OF_PERICENTER":46.7339,"MEAN_ANOMALY":324.8332,"EPHEMERIS_TYPE":0,"CLASSIFICATION_TYPE":"U","NORAD_CAT_ID":36519,"ELEMENT_SET_NO":999,"REV_AT_EPOCH":79433,"BSTAR":5.8605313e-5,"MEAN_MOTION_DOT":6.8e-7,"MEAN_MOTION_DDOT":0},{"OBJECT_NAME":"COSMOS 883","OBJECT_ID":"1976-122A","EPOCH":"2026-03-09T20:26:23.697888","MEAN_MOTION":13.76350689,"ECCENTRICITY":0.00353188,"INCLINATION":82.9571,"RA_OF_ASC_NODE":338.3409,"ARG_OF_PERICENTER":130.8674,"MEAN_ANOMALY":229.5553,"EPHEMERIS_TYPE":0,"CLASSIFICATION_TYPE":"U","NORAD_CAT_ID":9610,"ELEMENT_SET_NO":999,"REV_AT_EPOCH":47130,"BSTAR":7.42971e-5,"MEAN_MOTION_DOT":8.8e-7,"MEAN_MOTION_DDOT":0}]
